OBJECT_NAME,OBJECT_ID,EPOCH,MEAN_MOTION,ECCENTRICITY,INCLINATION,RA_OF_ASC_NODE,ARG_OF_PERICENTER,MEAN_ANOMALY,EPHEMERIS_TYPE,CLASSIFICATION_TYPE,NORAD_CAT_ID,ELEMENT_SET_NO,REV_AT_EPOCH,BSTAR,MEAN_MOTION_DOT,MEAN_MOTION_DDOT
STARLINK-4621,2022-105AE,2026-07-09T09:04:42.626496,15.05652857,.00017002,97.2827,68.2472,86.0714,274.0708,0,U,53676,999,21154,.2309231E-4,.277E-5,0
SHERPA-LTC2,2022-107BG,2026-07-10T05:43:04.698912,14.69894127,.03927684,53.2365,122.7379,290.8074,65.1253,0,U,53754,999,20593,.15170061E-3,.2762E-4,0
CENTISPACE-1 S3,2022-108A,2026-07-10T07:50:18.759264,14.61279998,.00106233,53.5341,319.5746,53.3939,306.8012,0,U,53757,999,20491,.7758694E-4,.196E-5,0
CENTISPACE-1 S4,2022-108B,2026-07-10T07:12:04.228416,14.61968121,.00098624,53.5316,317.0925,42.7341,317.4400,0,U,53758,999,20494,.99572216E-4,.312E-5,0
BLUEWALKER-3,2022-111AL,2026-07-09T12:40:14.891232,15.38565703,.00046278,53.2297,289.0667,241.3909,118.6631,0,U,53807,999,21364,.11864694E-3,.4192E-4,0
YUNHAI-1 03,2022-115A,2026-07-10T07:17:01.859136,14.32733896,.00044764,98.5540,189.1578,354.7953,5.3184,0,U,53877,999,19882,.10715526E-3,.248E-5,0
CENTISPACE-1 S5,2022-126A,2026-07-10T05:52:37.223328,14.63050791,.00145675,54.9986,120.6876,115.0928,245.1579,0,U,54020,999,20041,.13077148E-3,.487E-5,0
CENTISPACE-1 S6,2022-126B,2026-07-10T05:59:24.804096,14.62311856,.00163714,54.9989,122.6420,116.1121,244.1560,0,U,54021,999,20037,.10459648E-3,.343E-5,0
OTB-3-GAZELLE,2022-127A,2026-07-09T12:44:46.707360,14.42682594,.0014277,98.3956,181.8963,118.5555,241.7074,0,U,54023,999,19758,.42118365E-4,.97E-6,0
ASO-S,2022-129A,2026-07-10T06:27:22.326624,14.52073290,.00149113,98.2753,196.0194,26.8566,333.3399,0,U,54029,999,19877,.44660095E-4,.136E-5,0
HJ-2E,2022-132A,2026-07-10T06:55:18.460704,15.22652248,.00180985,97.3803,195.2534,289.6409,70.2874,0,U,54035,999,20793,.24584477E-3,.5676E-4,0
COSMOS 2561,2022-137A,2026-07-09T20:35:10.326624,15.52279849,.0008237,96.9177,249.0165,305.1334,54.9147,0,U,54109,999,20986,.17123E-3,.10328E-3,0
GONETS-M 23,2022-139A,2026-07-10T08:46:10.192800,12.42891814,.00219355,82.5091,333.8892,168.7626,191.3948,0,U,54150,999,16852,.20531121E-3,.38E-6,0
GONETS-M 24,2022-139B,2026-07-10T06:11:28.130208,12.42892377,.00169901,82.5007,333.0000,178.6116,181.5014,0,U,54151,999,16851,.10575706E-3,.25E-6,0
GONETS-M 25,2022-139C,2026-07-10T07:47:50.165088,12.42890789,.00209287,82.5073,333.6572,177.5029,182.6158,0,U,54152,999,16852,.14909993E-3,.31E-6,0
SKIF-D,2022-139D,2026-07-10T05:46:42.582432,5.00429283,.00074155,89.9494,96.6615,189.3183,170.7325,0,U,54153,999,6526,0,0,0
MATS,2022-147A,2026-07-09T13:57:40.789440,15.05486053,.00141982,97.6826,192.0832,119.9070,240.3569,0,U,54227,999,20113,.86403155E-4,.1181E-4,0
EOS-6 (OCEANSAT-3),2022-158A,2026-07-10T07:51:49.455072,14.46982759,.00002363,98.3549,289.2156,103.0571,257.0648,0,U,54361,999,19118,.52262209E-4,.146E-5,0
DONGPO 09,2022-167D,2026-07-10T07:58:50.288736,15.36861611,.00030998,97.6913,3.3837,63.1688,296.9872,0,U,54685,999,19900,.23319172E-3,.8317E-4,0
DONGPO 08,2022-167E,2026-07-10T06:55:44.917248,15.34119745,.00093716,97.6877,0.4057,88.6161,271.6154,0,U,54686,999,19886,.2327241E-3,.7609E-4,0
2022-167F,2022-167F,2026-07-09T14:32:54.790080,16.09597973,.00058975,97.6012,21.5488,242.9623,117.1058,0,U,54687,999,20041,.70060108E-3,.632788E-2,.21266021E-3
DONGPO 10,2022-167H,2026-07-10T06:47:42.309312,15.34935165,.00053905,97.6958,2.4060,43.6400,316.5268,0,U,54689,999,19890,.23039708E-3,.7724E-4,0
JILIN-1 GAOFEN 03D48,2022-167P,2026-07-10T08:01:24.026304,15.35725245,.00068494,97.6892,1.8456,45.7761,314.4043,0,U,54695,999,19894,.23200215E-3,.798E-4,0
STAR VIBE,2023-001A,2026-07-10T04:38:38.603904,15.43262065,.00060067,97.3162,255.7582,47.1581,313.0171,0,U,55009,999,19577,.2459864E-3,.10858E-3,0
BRO-8,2023-001C,2026-07-10T07:01:23.602656,15.50532589,.00054077,97.3195,256.8307,56.5575,303.6194,0,U,55011,999,19578,.43563305E-3,.24837E-3,0
CONNECTA T1.2,2023-001D,2026-07-09T14:44:08.485440,15.52554531,.00044362,97.3245,261.7273,29.3220,330.8281,0,U,55012,999,19602,.54725678E-3,.33588E-3,0
BIRKELAND,2023-001G,2026-07-10T06:34:57.230400,15.40482742,.00069646,97.3339,259.3076,37.4163,322.7567,0,U,55015,999,19590,.16675201E-3,.6679E-4,0
ION SCV-008,2023-001AU,2026-07-10T05:07:01.313760,15.28843386,.0013226,97.5712,287.9206,292.8818,67.1025,0,U,55051,999,19485,.15681945E-3,.4326E-4,0
ION SCV-007,2023-001BD,2026-07-10T03:43:17.534784,14.77573553,.00109197,97.8995,253.7133,260.4754,99.5223,0,U,55060,999,18964,.39813732E-4,.234E-5,0
HUYGENS,2023-001CN,2026-07-10T05:01:32.191104,15.40481366,.00090127,97.3243,258.4424,11.5048,348.6402,0,U,55093,999,19591,.16145767E-3,.6467E-4,0
