STARLINK-4621           
1 53676U 22105AE  26190.37827114  .00000277  00000+0  23092-4 0  9993
2 53676  97.2827  68.2472 0001700  86.0714 274.0708 15.05652857211542
SHERPA-LTC2             
1 53754U 22107BG  26191.23824883  .00002762  00000+0  15170-3 0  9996
2 53754  53.2365 122.7379 0392768 290.8074  65.1253 14.69894127205938
CENTISPACE-1 S3         
1 53757U 22108A   26191.32660601  .00000196  00000+0  77587-4 0  9996
2 53757  53.5341 319.5746 0010623  53.3939 306.8012 14.61279998204911
CENTISPACE-1 S4         
1 53758U 22108B   26191.30004894  .00000312  00000+0  99572-4 0  9999
2 53758  53.5316 317.0925 0009862  42.7341 317.4400 14.61968121204943
BLUEWALKER-3            
1 53807U 22111AL  26190.52795013  .00004192  00000+0  11865-3 0  9999
2 53807  53.2297 289.0667 0004627 241.3909 118.6631 15.38565703213643
YUNHAI-1 03             
1 53877U 22115A   26191.30349374  .00000248  00000+0  10716-3 0  9994
2 53877  98.5540 189.1578 0004476 354.7953   5.3184 14.32733896198824
CENTISPACE-1 S5         
1 54020U 22126A   26191.24487527  .00000487  00000+0  13077-3 0  9991
2 54020  54.9986 120.6876 0014567 115.0928 245.1579 14.63050791200419
CENTISPACE-1 S6         
1 54021U 22126B   26191.24959264  .00000343  00000+0  10460-3 0  9998
2 54021  54.9989 122.6420 0016371 116.1121 244.1560 14.62311856200377
OTB-3-GAZELLE           
1 54023U 22127A   26190.53109615  .00000097  00000+0  42118-4 0  9991
2 54023  98.3956 181.8963 0014277 118.5555 241.7074 14.42682594197583
ASO-S                   
1 54029U 22129A   26191.26900841  .00000136  00000+0  44660-4 0  9998
2 54029  98.2753 196.0194 0014911  26.8566 333.3399 14.52073290198773
HJ-2E                   
1 54035U 22132A   26191.28840811  .00005676  00000+0  24584-3 0  9997
2 54035  97.3803 195.2534 0018098 289.6409  70.2874 15.22652248207938
COSMOS 2561             
1 54109U 22137A   26190.85775841  .00010328  00000+0  17123-3 0  9997
2 54109  96.9177 249.0165 0008237 305.1334  54.9147 15.52279849209863
GONETS-M 23             
1 54150U 22139A   26191.36539575  .00000038  00000+0  20531-3 0  9998
2 54150  82.5091 333.8892 0021935 168.7626 191.3948 12.42891814168521
GONETS-M 24             
1 54151U 22139B   26191.25796447  .00000025  00000+0  10576-3 0  9994
2 54151  82.5007 333.0000 0016990 178.6116 181.5014 12.42892377168510
GONETS-M 25             
1 54152U 22139C   26191.32488617  .00000031  00000+0  14910-3 0  9993
2 54152  82.5073 333.6572 0020928 177.5029 182.6158 12.42890789168528
SKIF-D                  
1 54153U 22139D   26191.24077063  .00000000  00000+0  00000+0 0  9991
2 54153  89.9494  96.6615 0007415 189.3183 170.7325  5.00429283 65263
MATS                    
1 54227U 22147A   26190.58172210  .00001181  00000+0  86403-4 0  9995
2 54227  97.6826 192.0832 0014198 119.9070 240.3569 15.05486053201138
EOS-6 (OCEANSAT-3)      
1 54361U 22158A   26191.32765573  .00000146  00000+0  52262-4 0  9995
2 54361  98.3549 289.2156 0000236 103.0571 257.0648 14.46982759191187
DONGPO 09               
1 54685U 22167D   26191.33252649  .00008317  00000+0  23319-3 0  9998
2 54685  97.6913   3.3837 0003099  63.1688 296.9872 15.36861611199002
DONGPO 08               
1 54686U 22167E   26191.28871432  .00007609  00000+0  23272-3 0  9991
2 54686  97.6877   0.4057 0009371  88.6161 271.6154 15.34119745198869
2022-167F               
1 54687U 22167F   26190.60618970  .00632788  21266-3  70060-3 0  9993
2 54687  97.6012  21.5488 0005897 242.9623 117.1058 16.09597973200418
DONGPO 10               
1 54689U 22167H   26191.28312858  .00007724  00000+0  23040-3 0  9997
2 54689  97.6958   2.4060 0005390  43.6400 316.5268 15.34935165198904
JILIN-1 GAOFEN 03D48    
1 54695U 22167P   26191.33430586  .00007980  00000+0  23200-3 0  9991
2 54695  97.6892   1.8456 0006849  45.7761 314.4043 15.35725245198942
STAR VIBE               
1 55009U 23001A   26191.19350236  .00010858  00000+0  24599-3 0  9996
2 55009  97.3162 255.7582 0006006  47.1581 313.0171 15.43262065195770
BRO-8                   
1 55011U 23001C   26191.29263429  .00024837  00000+0  43563-3 0  9991
2 55011  97.3195 256.8307 0005407  56.5575 303.6194 15.50532589195787
CONNECTA T1.2           
1 55012U 23001D   26190.61398710  .00033588  00000+0  54726-3 0  9995
2 55012  97.3245 261.7273 0004436  29.3220 330.8281 15.52554531196027
BIRKELAND               
1 55015U 23001G   26191.27427350  .00006679  00000+0  16675-3 0  9996
2 55015  97.3339 259.3076 0006964  37.4163 322.7567 15.40482742195906
ION SCV-008             
1 55051U 23001AU  26191.21320965  .00004326  00000+0  15682-3 0  9998
2 55051  97.5712 287.9206 0013226 292.8818  67.1025 15.28843386194851
ION SCV-007             
1 55060U 23001BD  26191.15506406  .00000234  00000+0  39814-4 0  9995
2 55060  97.8995 253.7133 0010919 260.4754  99.5223 14.77573553189642
HUYGENS                 
1 55093U 23001CN  26191.20940036  .00006467  00000+0  16146-3 0  9994
2 55093  97.3243 258.4424 0009012  11.5048 348.6402 15.40481366195912
